STARLINK-31158          
1 58854U 24019B   24093.52710046  .00002498  00000+0  10537-3 0  9990
2 58854  42.9988 270.1002 0002071 274.2344  85.8271 15.25886698 11168
STARLINK-31237          
1 58855U 24019C   24093.52257862  .00003975  00000+0  16191-3 0  9996
2 58855  42.9990 270.0829 0001557 267.9025  92.1648 15.25872160 11169
STARLINK-31244          
1 58856U 24019D   24093.47748388 -.00026529  00000+0 -10092-2 0  9994
2 58856  43.0009 270.6003 0001062 279.4197  80.6534 15.25870053 11156
STARLINK-31216          
1 58857U 24019E   24093.88817842  .00017020  00000+0  65914-3 0  9990
2 58857  42.9989 267.6356 0001858 263.8350  96.2289 15.25901155 11068
STARLINK-31226          
1 58858U 24019F   24093.53388873 -.00001778  00000+0 -58185-4 0  9998
2 58858  42.9960 270.1527 0001076 288.0197  72.0537 15.25897550 11169
STARLINK-31197          
1 58859U 24019G   24093.55197792 -.00002327  00000+0 -79155-4 0  9990
2 58859  42.9988 270.3010 0001515 264.4929  95.5750 15.25909187 11165
STARLINK-31213          
1 58860U 24019H   24093.89284047 -.00001436  00000+0 -45056-4 0  9992
2 58860  42.9996 268.5613 0001770 290.2302  69.8359 15.25910935 11217
STARLINK-31199          
1 58861U 24019J   24093.86795222 -.00005227  00000+0 -19007-3 0  9990
2 58861  42.9998 268.3656 0001139 276.8007  83.2714 15.25917151 11218
STARLINK-31200          
1 58862U 24019K   24093.85211457  .00000095  00000+0  13471-4 0  9999
2 58862  42.9985 268.2382 0001535 286.6892  73.3791 15.25922184 11218
STARLINK-31149          
1 58863U 24019L   24093.84094559 -.00003067  00000+0 -10743-3 0  9993
2 58863  42.9985 269.0320 0002171 286.5651  73.4961 15.25909573 11205
STARLINK-31242          
1 58864U 24019M   24093.87701097  .00002729  00000+0  11410-3 0  9993
2 58864  43.0013 268.4412 0000925 287.9217  72.1533 15.25915763 11213
STARLINK-31223          
1 58865U 24019N   24093.52031480  .00034229  00000+0  13125-2 0  9992
2 58865  43.0015 270.0579 0001234 323.7112  36.3655 15.25904855 11145
STARLINK-31219          
1 58866U 24019P   24093.56781629 -.00003967  00000+0 -14191-3 0  9996
2 58866  42.9986 270.4249 0001813 272.8272  87.2372 15.25899800 11147
STARLINK-31198          
1 58867U 24019Q   24093.86343235  .00003786  00000+0  15457-3 0  9990
2 58867  42.9945 268.3095 0001258 320.7339  39.3421 15.25892769 10956
STARLINK-31196          
1 58868U 24019R   24093.80023221  .00001837  00000+0  80012-4 0  9990
2 58868  43.0006 268.7150 0001374 252.6618 107.4083 15.25927726 10969
STARLINK-31203          
1 58869U 24019S   24093.75388005  .00005762  00000+0  19196-3 0  9994
2 58869  42.9979 264.9114 0002713 304.5410  55.5187 15.31871684 11248
STARLINK-31201          
1 58870U 24019T   24093.50914714 -.00001542  00000+0 -49128-4 0  9994
2 58870  43.0002 270.8434 0001697 280.7902  79.2758 15.25888175 11132
STARLINK-31214          
1 58871U 24019U   24093.82510995  .00006365  00000+0  25281-3 0  9992
2 58871  42.9997 268.9141 0001544 270.6579  89.4095 15.25928872 10995
STARLINK-31215          
1 58872U 24019V   24093.49104044  .00008089  00000+0  31872-3 0  9998
2 58872  42.9996 270.7051 0001608 281.6661  78.4010 15.25912176 11133
STARLINK-31177          
1 58873U 24019W   24093.84533912 -.00003333  00000+0 -11766-3 0  9997
2 58873  42.9982 268.1898 0002299 275.3080  84.7508 15.25895722 11219
STARLINK-30945          
1 58874U 24019X   24093.85890738 -.00002016  00000+0 -67240-4 0  9997
2 58874  42.9999 268.2767 0001833 273.4617  86.6024 15.25907006 11215
STARLINK-31212          
1 58875U 24019Y   24093.83188887 -.00005399  00000+0 -19677-3 0  9998
2 58875  43.0004 268.9662 0001805 274.7590  85.3055 15.25895295 11046
STARLINK-31306          
1 58876U 24020A   24093.73154737  .00002463  00000+0  10167-3 0  9999
2 58876  53.1611   1.6877 0000184 251.2423 108.8557 15.27977828 11152
STARLINK-31326          
1 58877U 24020B   24093.75038815 -.00001155  00000+0 -29066-4 0  9998
2 58877  53.1613   0.3825 0000737 114.3192 245.7885 15.28024118 11162
STARLINK-31300          
1 58878U 24020C   24093.46521063 -.00002176  00000+0 -65890-4 0  9998
2 58878  53.1607   2.8699 0001324  88.7479 271.3672 15.28025697  9942
STARLINK-31296          
1 58879U 24020D   24093.46088368  .00052520  00000+0  18937-2 0  9999
2 58879  53.1589   2.8450 0001353  94.4075 265.7080 15.28049266  9943
STARLINK-31328          
1 58880U 24020E   24093.74437722  .00000081  00000+0  15570-4 0  9991
2 58880  53.1595 355.2761 0001123  68.2113 291.9007 15.28012364 11244
STARLINK-31260          
1 58881U 24020F   24093.46054738  .00003320  00000+0  13248-3 0  9991
2 58881  53.1591   2.8415 0001000  99.8870 260.2242 15.28019684  9942
STARLINK-31323          
1 58882U 24020G   24093.45620961  .00012784  00000+0  47318-3 0  9997
2 58882  53.1579   2.8134 0001669  78.0832 282.0355 15.28036263  9944
STARLINK-31209          
1 58883U 24020H   24093.45587800 -.00005937  00000+0 -20187-3 0  9991
2 58883  53.1588   2.8113 0001722  67.3982 292.7199 15.28011530  9943
STARLINK-31315          
1 58884U 24020J   24093.14610789  .00000012  00000+0  93571-5 0  9997
2 58884  53.1606 352.9315 0000587 125.1875 234.9187 15.43865315 10054
STARLINK-31318          
1 58885U 24020K   24093.47483621  .00011854  00000+0  44017-3 0  9992
2 58885  53.1620   2.2076 0001032  87.8180 272.2938 15.28001365  9955
STARLINK-31320          
1 58886U 24020L   24093.71316389 -.00002388  00000+0 -73607-4 0  9998
2 58886  53.1597   1.5766 0001493  97.2395 262.8774 15.28008369 11149
STARLINK-31321          
1 58887U 24020M   24093.44685536  .00009776  00000+0  36509-3 0  9997
2 58887  53.1565   2.7563 0000943  99.6701 260.4406 15.28025403 11109
STARLINK-30970          
1 58888U 24020N   24092.05478212  .00041948  00000+0  14390-2 0  9995
2 58888  53.1602   9.0051 0001325 117.5110 242.6025 15.29778502  9734
STARLINK-31007          
1 58889U 24020P   24093.44652518 -.00013784  00000+0 -48660-3 0  9990
2 58889  53.1572   2.7548 0001357  93.6601 266.4553 15.27973190  9947
STARLINK-31230          
1 58890U 24020Q   24093.44216901 -.00001320  00000+0 -35044-4 0  9990
2 58890  53.1568   2.7222 0000972  60.9500 299.1597 15.28000662  9947
STARLINK-31245          
1 58891U 24020R   24091.99664654  .00166046  00000+0  11278-2 0  9997
2 58891  53.1514 350.4822 0000964 195.9490 164.1499 15.73941062 11141
STARLINK-31254          
1 58892U 24020S   24093.44181224  .00001284  00000+0  58962-4 0  9992
2 58892  53.1592   2.7235 0000886 101.0687 259.0412 15.28047080  9943
STARLINK-31255          
1 58893U 24020T   24093.76454729 -.00001048  00000+0 -25182-4 0  9999
2 58893  53.1579   1.1825 0001864  91.2079 268.9134 15.27990935 11150
STARLINK-31243          
1 58894U 24020U   24093.76419229  .00002551  00000+0  10469-3 0  9995
2 58894  53.1612   1.1784 0001003  93.2826 266.8288 15.28026988 10896
STARLINK-31218          
1 58895U 24020V   24093.17116176  .00001792  00000+0  77283-4 0  9990
2 58895  53.1601   3.8732 0001347 118.5759 241.5377 15.28046089  9907
STARLINK-31221          
1 58896U 24020W   24093.17083439  .00003915  00000+0  15385-3 0  9999
2 58896  53.1604   3.8719 0001632 130.5071 229.6072 15.28038592  9903
STARLINK-31190          
1 58897U 24020X   24093.88578830 -.00002941  00000+0 -93365-4 0  9997
2 58897  53.1629   0.5204 0001341  81.4238 278.6914 15.28089016 10908
STARLINK-31317          
1 58931U 24027A   24093.42462690 -.00009166  00000+0 -31899-3 0  9998
2 58931  53.1611 348.9154 0001195  87.9462 272.1674 15.27986711  9051
STARLINK-31378          
1 58932U 24027B   24093.42427069  .00007823  00000+0  29488-3 0  9997
2 58932  53.1596 348.9123 0000491 104.1010 256.0044 15.28010099  9217
STARLINK-31350          
1 58933U 24027C   24093.02715339  .00012722  00000+0  47100-3 0  9999
2 58933  53.1595 350.6982 0001073  62.6843 297.4266 15.28032287  9150
STARLINK-31337          
1 58934U 24027D   24093.02748035  .00020270  00000+0  74196-3 0  9991
2 58934  53.1595 350.6980 0000744 107.3919 252.7162 15.28043020  9150
STARLINK-31362          
1 58935U 24027E   24093.74229675 -.00005298  00000+0 -17884-3 0  9991
2 58935  53.1576 347.3450 0001190  65.0367 295.0756 15.28001671  9063
STARLINK-31383          
1 58936U 24027F   24093.02245770  .00010832  00000+0  40285-3 0  9996
2 58936  53.1588 350.6670 0001163 128.8843 231.2260 15.28046282  9154
STARLINK-31390          
1 58937U 24027G   24093.01813384  .00059184  00000+0  21312-2 0  9990
2 58937  53.1575 350.6454 0000953 136.5656 223.5419 15.28038073  9154
STARLINK-31377          
1 58938U 24027H   24093.73726525  .00004241  00000+0  16574-3 0  9999
2 58938  53.1587 347.3083 0000092  22.6089 337.4914 15.28007599  9006
STARLINK-31372          
1 58939U 24027J   24093.40590403 -.00007649  00000+0 -26412-3 0  9997
2 58939  53.1593 348.7990 0001387 129.2921 230.8202 15.27976781  9017
STARLINK-31371          
1 58940U 24027K   24093.73259506  .00001057  00000+0  50832-4 0  9990
2 58940  53.1580 347.2805 0002059  96.4651 263.6583 15.28019790  9101
STARLINK-31345          
1 58941U 24027L   24093.72826475 -.00017089  00000+0 -60684-3 0  9994
2 58941  53.1576 347.2527 0000862 109.1876 250.9217 15.27960465  9105
STARLINK-31354          
1 58942U 24027M   24093.72792387  .00000557  00000+0  32791-4 0  9998
2 58942  53.1574 347.2499 0001039  88.6319 271.4799 15.27991118  9104
STARLINK-31346          
1 58943U 24027N   24093.72357237  .00042910  00000+0  15533-2 0  9992
2 58943  53.1570 347.2245 0001329 346.1211  13.9752 15.28011267  9056
STARLINK-31336          
1 58944U 24027P   24093.72324423  .00005440  00000+0  20888-3 0  9991
2 58944  53.1584 347.2212 0001646 105.9393 254.1788 15.28027854  9103
STARLINK-31359          
1 58945U 24027Q   24093.70466979  .00007881  00000+0  29728-3 0  9996
2 58945  53.1597 345.6637 0001290  98.1477 261.9669 15.27975652  9147
